{"fetched_at":"2026-05-03T09:24:26Z","count":17359,"tles":[{"name":"STARLINK-36119","line1":"1 67619U 26020C   26122.25780116  .00029016  00000+0  10599-2 0  9995","line2":"2 67619  43.0019 197.4808 0001354 259.2835 100.7864 15.27577966 14301","category":"Starlink"},{"name":"STARLINK-32091","line1":"1 59684U 24086C   26122.40324007  .00002101  00000+0  85855-4 0  9993","line2":"2 59684  43.0028 109.0535 0001093 254.3052 105.7679 15.27581395112429","category":"Starlink"},{"name":"STARLINK-35484","line1":"1 65923U 25225P   26122.39708521  .00030668  00000+0  10431-2 0  9992","line2":"2 65923  53.1586 276.0204 0001794  91.9022 268.2185 15.30206408 32635","category":"Starlink"},{"name":"STARLINK-11400 [DTC]","line1":"1 63017U 25032N   26122.36965862  .00291775  00000+0  21991-2 0  9991","line2":"2 63017  42.9997 232.0050 0002008 288.7507  71.3143 15.70833416 70653","category":"Starlink"},{"name":"STARLINK-37224","line1":"1 68671U 26077K   26122.41670139 -.01941973  00000+0 -22171-1 0  9993","line2":"2 68671  97.2838 353.9375 0001965  89.4958  19.1886 15.65294875  4319","category":"Starlink"},{"name":"STARLINK-30269","line1":"1 57528U 23115H   26122.22377088  .00001553  00000+0  65930-4 0  9999","line2":"2 57528  43.0053  59.7116 0001242 277.1210  82.9500 15.27585580150536","category":"Starlink"},{"name":"STARLINK-33923","line1":"1 63786U 25091M   26122.38789255  .00026191  00000+0  95788-3 0  9995","line2":"2 63786  42.9994 109.3542 0001212 272.0466  88.0247 15.27580802 57061","category":"Starlink"},{"name":"UNKNOWN","line1":"1 87541U          26098.08019396  .00000127  00000+0  32887-3 0  9996","line2":"2 87541  99.6924 311.1131 0059765 341.3357 170.8280 13.35627562597563","category":"Other"},{"name":"FLOCK 4BE-31","line1":"1 60488U 24149W   26121.97948689  .00020508  00000+0  47686-3 0  9996","line2":"2 60488  97.3804 206.6455 0003898  91.4828 268.6866 15.42347427 95259","category":"Other"},{"name":"STARLINK-35956","line1":"1 66629U 25271N   25364.60482880  .00899037  00000+0  91695-2 0  9999","line2":"2 66629  53.1707 101.2560 0013143  27.5480 332.6229 15.62039984  1844","category":"Starlink"},{"name":"STARLINK-31126","line1":"1 58675U 23211J   26122.39654223 -.00000006  00000+0  93022-5 0  9994","line2":"2 58675  43.0010 141.5094 0001143 272.5627  87.5093 15.27579492130686","category":"Starlink"},{"name":"TRACERS 1","line1":"1 64870U 25154B   26122.41154529  .00001619  00000+0  15968-3 0  9994","line2":"2 64870  97.6716 187.1694 0006673  59.3380 300.8497 14.93340552 42169","category":"Other"},{"name":"STARLINK-32601","line1":"1 61973U 24210Q   26122.36939296  .00009407  00000+0  35114-3 0  9991","line2":"2 61973  43.0024 236.3229 0001479 259.7868 100.2817 15.27559905 83091","category":"Starlink"},{"name":"STARLINK-31640","line1":"1 59748U 24090U   26122.39851079 -.00001656  00000+0 -50684-4 0  9999","line2":"2 59748  43.0016 240.2239 0001368 267.2233  92.8462 15.27572031111652","category":"Starlink"},{"name":"SDA_1677","line1":"1 65987U 25230P   26122.41303500  .00000202  00000+0  18801-3 0  9990","line2":"2 65987  81.2989 254.4529 0000363 111.9979 248.1213 13.78593721 27459","category":"Other"},{"name":"STARLINK-32895","line1":"1 63081U 25037E   26122.40219471  .00004733  00000+0  40404-3 0  9997","line2":"2 63081  70.0020 219.1864 0003509 269.1592  90.9165 14.98343041 66505","category":"Starlink"},{"name":"STARLINK-37339","line1":"1 68735U 26082H   26122.41670139 -.00001996  00000+0 -12530-4 0  9992","line2":"2 68735  97.2846 345.0498 0001014  88.8114 276.3543 15.75169515  3824","category":"Starlink"},{"name":"STARLINK-30247","line1":"1 57644U 23122N   26121.80977336 -.00001846  00000+0 -57619-4 0  9993","line2":"2 57644  43.0043 152.2815 0001260 260.9898  99.0811 15.27564305150335","category":"Starlink"},{"name":"STARLINK-33776","line1":"1 63851U 25093R   26122.30131865  .00018910  00000+0  69507-3 0  9990","line2":"2 63851  42.9968 134.9286 0001275 257.8991 102.1718 15.27573454 56163","category":"Starlink"},{"name":"UNKNOWN","line1":"1 89184U          26101.91793680  .00016839  00000+0  18250-2 0  9997","line2":"2 89184  98.3835 337.8514 0010756  97.6322 262.6115 14.88237419510003","category":"Other"},{"name":"SATELIOT_3","line1":"1 60552U 24149CN  26122.44529978  .00002288  00000+0  19937-3 0  9990","line2":"2 60552  97.6840 199.8583 0003578 221.0561 139.0393 14.97875054 93232","category":"Other"},{"name":"TRANSPORTER-15 OBJECT AD","line1":"1 66693U 25276AD  26122.45790198  .00012858  00000+0  57284-3 0  9990","line2":"2 66693  97.4188 196.9685 0004955 156.5800 203.5662 15.21559115 23498","category":"Other"},{"name":"STARLINK-31148","line1":"1 58741U 24005P   26122.41698674 -.00000985  00000+0 -26266-4 0  9993","line2":"2 58741  43.0047 276.0771 0002005 295.9436  64.1209 15.27575465128662","category":"Starlink"},{"name":"STARLINK-34775","line1":"1 64934U 25158C   26122.18108231  .00002761  00000+0  19546-3 0  9997","line2":"2 64934  97.5469 346.7377 0001478  61.2037 298.9338 15.05650859 43401","category":"Starlink"},{"name":"STARLINK-32477","line1":"1 62038U 24216G   26122.50003471  .00258598  00000+0  36005-2 0  9999","line2":"2 62038  42.9924 297.3747 0024362 299.5407 234.4838 15.54978451  5908","category":"Starlink"},{"name":"2026-027B","line1":"1 67747U 26027B   26122.34919308  .00007934  00000+0  38539-3 0  9991","line2":"2 67747  97.4998 250.8708 0010466  25.8864 334.2892 15.18675650 12007","category":"Other"},{"name":"2024-095C","line1":"1 59812U 24095C   26121.83126056  .00386536  00000+0  16519-2 0  9992","line2":"2 59812  97.5445 225.7422 0006492 238.5101 121.5534 15.84164904108929","category":"Other"},{"name":"CZ-6A R/B","line1":"1 66051U 25233U   25320.49418622  .00000637  00000+0  13118-3 0  9993","line2":"2 66051  89.0302  64.9607 0084391  16.9287 343.4708 14.57028220  4398","category":"Other"},{"name":"STARLINK-32949","line1":"1 63145U 25043P   26122.27065976  .00037665  00000+0  13698-2 0  9993","line2":"2 63145  43.0016  73.9091 0001681 270.6238  89.4421 15.27615486 66126","category":"Starlink"},{"name":"KAKUSHIN RISING OBJECT H","line1":"1 68799U 26088H   26113.82333913  .00001590  00000+0  10605-3 0  9997","line2":"2 68799  97.4986 264.4881 0017899 267.0829  92.8351 15.08368885   106","category":"Other"},{"name":"CZ-2D R/B","line1":"1 57729U 23130C   23284.36289272  .00042507  00000+0  16003-2 0  9996","line2":"2 57729  34.9957 170.0647 0012667 269.1808  90.7456 15.26022527  6245","category":"Other"},{"name":"STARLINK-34076","line1":"1 63915U 25095AB  26122.33912751  .00004425  00000+0  17028-3 0  9994","line2":"2 63915  42.9997 233.1537 0001581 272.4940  87.5731 15.27569451 55986","category":"Starlink"},{"name":"COSMOS 2251 DEB","line1":"1 34059U 93036JW  26104.34930340  .00001243  00000+0  30252-3 0  9995","line2":"2 34059  74.0374 314.8103 0016844   2.7839 176.7486 14.53770626902405","category":"Other"},{"name":"ONEWEB-0343","line1":"1 49209U 21083Z   26122.31927456 -.00003055  00000+0 -77807-2 0  9993","line2":"2 49209  87.9195 344.5818 0001608  70.4956 289.6349 13.18713276223999","category":"Other"},{"name":"FLOCK 4V-15","line1":"1 46528U 20061BE  23361.65922162  .00064645  00000+0  94239-3 0  9996","line2":"2 46528  97.3266  76.9111 0000951  18.1784 341.9505 15.55491769180861","category":"Other"},{"name":"STARLINK-6187","line1":"1 56546U 23065AV  26122.13551389  .00017987  00000+0  67810-3 0  9996","line2":"2 56546  43.0012 281.9457 0002409 280.2950  79.7629 15.26763558164644","category":"Starlink"},{"name":"HYLAS 1","line1":"1 37237U 10065A   26122.17267073  .00000096  00000+0  00000+0 0  9993","line2":"2 37237   5.5285  73.5697 0001707 303.3617 279.1295  1.00271906  6427","category":"Other"},{"name":"SPACEBEE-151","line1":"1 52413U 22047V   23362.43509401  .00067430  00000+0  14268-2 0  9994","line2":"2 52413  97.4056  86.8600 0005179  18.3279 341.8156 15.44883421 93468","category":"Other"},{"name":"EUTELSAT 7C","line1":"1 44334U 19034B   26121.70043985  .00000054  00000+0  00000+0 0  9990","line2":"2 44334   0.0764 183.0497 0003525 203.0262  92.7091  1.00271956  6363","category":"Other"},{"name":"2023-007N","line1":"1 55260U 23007N   24175.73979843  .05101846  24254-5  10623-2 0  9990","line2":"2 55260  97.2830 261.4877 0015632 263.2339  96.7177 16.30687971 81193","category":"Other"},{"name":"COSMOS 2251 DEB","line1":"1 34300U 93036MW  23178.96031533  .00008138  00000+0  15682-2 0  9995","line2":"2 34300  74.0208  12.6285 0115670 340.1723  19.4962 14.59430612755224","category":"Other"},{"name":"ATLAS 5 CENTAUR DEB","line1":"1 49341U 18079ES  26102.52410684 -.00000070  00000+0  00000+0 0  9993","line2":"2 49341  13.6258  52.5223 4649538 269.9930  38.8294  1.75092077 29557","category":"Other"},{"name":"STARLINK-1720","line1":"1 46675U 20073F   23362.11426091  .00004573  00000+0  32566-3 0  9993","line2":"2 46675  53.0523 244.5149 0001533  79.8181 280.2981 15.06404655176643","category":"Starlink"},{"name":"2023-069C","line1":"1 56733U 23069C   23362.44777112  .00013090  00000+0  35915-3 0  9991","line2":"2 56733  41.0043 140.3509 0027194 298.5693  61.2393 15.36643731 33947","category":"Other"},{"name":"FENGYUN 1C DEB","line1":"1 37435U 99025EHD 26102.83787355  .00001404  00000+0  63773-3 0  9991","line2":"2 37435  98.6313 141.8409 0040197  25.1774 335.1352 14.22966714906614","category":"Weather"},{"name":"STARLINK-3925","line1":"1 52498U 22049AZ  26122.38018233 -.00000739  00000+0 -28376-4 0  9996","line2":"2 52498  53.2163 158.0922 0001201  95.9620 264.1509 15.08834750220633","category":"Starlink"},{"name":"STARLINK-30853","line1":"1 58236U 23171G   26122.32300931  .00000619  00000+0  32025-4 0  9993","line2":"2 58236  43.0037 342.6354 0001668 267.5066  92.5595 15.27581899137936","category":"Starlink"},{"name":"STARLINK-34422","line1":"1 64415U 25129D   26122.21953080  .00002682  00000+0  23246-3 0  9997","line2":"2 64415  70.0004 299.5658 0002614 267.6990  92.3870 14.98335388 49249","category":"Starlink"}]}